CTC2_L_00095016-03
1 84238U 24875KH  26037.47791667  .00000000  00000+0  00000-0 0  9995
2 84238 100.0000 180.0000 0000000   0.0000   0.0000 15.18623352    14
CTC2_L_00095016-04
1 84239U 23888XR  26037.47791667  .00000000  00000+0  00000-0 0  9999
2 84239 100.0000 180.0000 0000000   0.0000  90.0000 15.18623352    14
CTC2_L_00095017-01
1 84240U 24376FH  26037.47791667  .00000000  00000+0  00000-0 0  9994
2 84240 100.0000 192.0000 0000000   0.0000 192.0000 15.18623352    12
CTC2_L_00095017-02
1 84241U 26051LR  26037.47791667  .00000000  00000+0  00000-0 0  9997
2 84241 100.0000 192.0000 0000000   0.0000 282.0000 15.18623352    13
CTC2_L_00095017-03
1 84242U 23879QJ  26037.47791667  .00000000  00000+0  00000-0 0  9993
2 84242 100.0000 192.0000 0000000   0.0000  12.0000 15.18623352    15
CTC2_L_00095017-04
1 84243U 25042XJ  26037.47791667  .00000000  00000+0  00000-0 0  9998
2 84243 100.0000 192.0000 0000000   0.0000 102.0000 15.18623352    16
CTC2_L_00095018-01
1 84244U 23207UV  26037.47791667  .00000000  00000+0  00000-0 0  9990
2 84244 100.0000 204.0000 0000000   0.0000 204.0000 15.18623352    14
CTC2_L_00095018-02
1 84245U 23753FU  26037.47791667  .00000000  00000+0  00000-0 0  9997
2 84245 100.0000 204.0000 0000000   0.0000 294.0000 15.18623352    14
CTC2_L_00095018-03
1 84246U 23669A   26037.47791667  .00000000  00000+0  00000-0 0  9994
2 84246 100.0000 204.0000 0000000   0.0000  24.0000 15.18623352    16
CTC2_L_00095018-04
1 84247U 26605GT  26037.47791667  .00000000  00000+0  00000-0 0  9998
2 84247 100.0000 204.0000 0000000   0.0000 114.0000 15.18623352    17
CTC2_L_00095019-01
1 84248U 22988SE  26037.47791667  .00000000  00000+0  00000-0 0  9999
2 84248 100.0000 216.0000 0000000   0.0000 216.0000 15.18623352    14
CTC2_L_00095019-02
1 84249U 25382EM  26037.47791667  .00000000  00000+0  00000-0 0  9991
2 84249 100.0000 216.0000 0000000   0.0000 306.0000 15.18623352    15
CTC2_L_00095019-03
1 84250U 22944MQ  26037.47791667  .00000000  00000+0  00000-0 0  9994
2 84250 100.0000 216.0000 0000000   0.0000  36.0000 15.18623352    17
CTC2_L_00095019-04
1 84251U 22357YK  26037.47791667  .00000000  00000+0  00000-0 0  9993
2 84251 100.0000 216.0000 0000000   0.0000 126.0000 15.18623352    18
CTC2_L_00095020-01
1 84252U 25582IR  26037.47791667  .00000000  00000+0  00000-0 0  9997
2 84252 100.0000 228.0000 0000000   0.0000 228.0000 15.18623352    15
CTC2_L_00095020-02
1 84253U 23348BG  26037.47791667  .00000000  00000+0  00000-0 0  9996
2 84253 100.0000 228.0000 0000000   0.0000 318.0000 15.18623352    16
CTC2_L_00095020-03
1 84254U 23416DF  26037.47791667  .00000000  00000+0  00000-0 0  9993
2 84254 100.0000 228.0000 0000000   0.0000  48.0000 15.18623352    17
CTC2_L_00095020-04
1 84255U 26254BF  26037.47791667  .00000000  00000+0  00000-0 0  9997
2 84255 100.0000 228.0000 0000000   0.0000 138.0000 15.18623352    18
CTC2_L_00095021-01
1 84256U 22213TZ  26037.47791667  .00000000  00000+0  00000-0 0  9999
2 84256 100.0000 240.0000 0000000   0.0000 240.0000 15.18623352    17
CTC2_L_00095021-02
1 84257U 23825RP  26037.47791667  .00000000  00000+0  00000-0 0  9990
2 84257 100.0000 240.0000 0000000   0.0000 330.0000 15.18623352    18
CTC2_L_00095021-03
1 84258U 24462VD  26037.47791667  .00000000  00000+0  00000-0 0  9999
2 84258 100.0000 240.0000 0000000   0.0000  60.0000 15.18623352    19
CTC2_L_00095021-04
1 84259U 24802VP  26037.47791667  .00000000  00000+0  00000-0 0  9998
2 84259 100.0000 240.0000 0000000   0.0000 150.0000 15.18623352    10
CTC2_L_00095022-01
1 84260U 23557UO  26037.47791667  .00000000  00000+0  00000-0 0  9996
2 84260 100.0000 252.0000 0000000   0.0000 252.0000 15.18623352    18
CTC2_L_00095022-02
1 84261U 26282ZE  26037.47791667  .00000000  00000+0  00000-0 0  9995
2 84261 100.0000 252.0000 0000000   0.0000 342.0000 15.18623352    19
CTC2_L_00095022-03
1 84262U 22916RS  26037.47791667  .00000000  00000+0  00000-0 0  9996
2 84262 100.0000 252.0000 0000000   0.0000  72.0000 15.18623352    10
CTC2_L_00095022-04
1 84263U 26278YZ  26037.47791667  .00000000  00000+0  00000-0 0  9992
2 84263 100.0000 252.0000 0000000   0.0000 162.0000 15.18623352    11
CTC2_L_00095023-01
1 84264U 26459NZ  26037.47791667  .00000000  00000+0  00000-0 0  9994
2 84264 100.0000 264.0000 0000000   0.0000 264.0000 15.18623352    18
CTC2_L_00095023-02
1 84265U 23919K   26037.47791667  .00000000  00000+0  00000-0 0  9993
2 84265 100.0000 264.0000 0000000   0.0000 354.0000 15.18623352    19
CTC2_L_00095023-03
1 84266U 26216PH  26037.47791667  .00000000  00000+0  00000-0 0  9997
2 84266 100.0000 264.0000 0000000   0.0000  84.0000 15.18623352    10
CTC2_L_00095023-04
1 84267U 26236XX  26037.47791667  .00000000  00000+0  00000-0 0  9990
2 84267 100.0000 264.0000 0000000   0.0000 174.0000 15.18623352    11
CTC2_L_00095024-01
1 84268U 23747AJ  26037.47791667  .00000000  00000+0  00000-0 0  9995
2 84268 100.0000 276.0000 0000000   0.0000 276.0000 15.18623352    18
CTC2_L_00095024-02
1 84269U 24790RD  26037.47791667  .00000000  00000+0  00000-0 0  9995
2 84269 100.0000 276.0000 0000000   0.0000   6.0000 15.18623352    10
CTC2_L_00095024-03
1 84270U 24875VL  26037.47791667  .00000000  00000+0  00000-0 0  9991
2 84270 100.0000 276.0000 0000000   0.0000  96.0000 15.18623352    11
CTC2_L_00095024-04
1 84271U 22022YY  26037.47791667  .00000000  00000+0  00000-0 0  9994
2 84271 100.0000 276.0000 0000000   0.0000 186.0000 15.18623352    12
CTC2_L_00095025-01
1 84272U 24468VR  26037.47791667  .00000000  00000+0  00000-0 0  9991
2 84272 100.0000 288.0000 0000000   0.0000 288.0000 15.18623352    19
CTC2_L_00095025-02
1 84273U 26537VX  26037.47791667  .00000000  00000+0  00000-0 0  9991
2 84273 100.0000 288.0000 0000000   0.0000  18.0000 15.18623352    11
CTC2_L_00095025-03
1 84274U 23414NF  26037.47791667  .00000000  00000+0  00000-0 0  9993
2 84274 100.0000 288.0000 0000000   0.0000 108.0000 15.18623352    12
CTC2_L_00095025-04
1 84275U 25360PI  26037.47791667  .00000000  00000+0  00000-0 0  9996
2 84275 100.0000 288.0000 0000000   0.0000 198.0000 15.18623352    12
CTC2_L_00095026-01
1 84276U 23641OH  26037.47791667  .00000000  00000+0  00000-0 0  9997
2 84276 100.0000 300.0000 0000000   0.0000 300.0000 15.18623352    13
CTC2_L_00095026-02
1 84277U 23472BE  26037.47791667  .00000000  00000+0  00000-0 0  9990
2 84277 100.0000 300.0000 0000000   0.0000  30.0000 15.18623352    14
CTC2_L_00095026-03
1 84278U 23093OK  26037.47791667  .00000000  00000+0  00000-0 0  9990
2 84278 100.0000 300.0000 0000000   0.0000 120.0000 15.18623352    15
CTC2_L_00095026-04
1 84279U 22958VJ  26037.47791667  .00000000  00000+0  00000-0 0  9990
2 84279 100.0000 300.0000 0000000   0.0000 210.0000 15.18623352    16
CTC2_L_00095027-01
1 84280U 25649OE  26037.47791667  .00000000  00000+0  00000-0 0  9992
2 84280 100.0000 312.0000 0000000   0.0000 312.0000 15.18623352    14
CTC2_L_00095027-02
1 84281U 24560VF  26037.47791667  .00000000  00000+0  00000-0 0  9994
2 84281 100.0000 312.0000 0000000   0.0000  42.0000 15.18623352    15
CTC2_L_00095027-03
1 84282U 26879CL  26037.47791667  .00000000  00000+0  00000-0 0  9990
2 84282 100.0000 312.0000 0000000   0.0000 132.0000 15.18623352    16
CTC2_L_00095027-04
1 84283U 26568LE  26037.47791667  .00000000  00000+0  00000-0 0  9996
2 84283 100.0000 312.0000 0000000   0.0000 222.0000 15.18623352    17
CTC2_L_00095028-01
1 84284U 24696PY  26037.47791667  .00000000  00000+0  00000-0 0  9997
2 84284 100.0000 324.0000 0000000   0.0000 324.0000 15.18623352    14
CTC2_L_00095028-02
1 84285U 22288LN  26037.47791667  .00000000  00000+0  00000-0 0  9993
2 84285 100.0000 324.0000 0000000   0.0000  54.0000 15.18623352    15
CTC2_L_00095028-03
1 84286U 24042VB  26037.47791667  .00000000  00000+0  00000-0 0  9994
2 84286 100.0000 324.0000 0000000   0.0000 144.0000 15.18623352    16
CTC2_L_00095028-04
1 84287U 25156VJ  26037.47791667  .00000000  00000+0  00000-0 0  9992
2 84287 100.0000 324.0000 0000000   0.0000 234.0000 15.18623352    17
CTC2_L_00095029-01
1 84288U 26994YH  26037.47791667  .00000000  00000+0  00000-0 0  9994
2 84288 100.0000 336.0000 0000000   0.0000 336.0000 15.18623352    14
CTC2_L_00095029-02
1 84289U 24603FI  26037.47791667  .00000000  00000+0  00000-0 0  9990
2 84289 100.0000 336.0000 0000000   0.0000  66.0000 15.18623352    15
CTC2_L_00095029-03
1 84290U 24558GJ  26037.47791667  .00000000  00000+0  00000-0 0  9991
2 84290 100.0000 336.0000 0000000   0.0000 156.0000 15.18623352    17
CTC2_L_00095029-04
1 84291U 24673YW  26037.47791667  .00000000  00000+0  00000-0 0  9990
2 84291 100.0000 336.0000 0000000   0.0000 246.0000 15.18623352    18
CTC2_L_00095030-01
1 84292U 25731YV  26037.47791667  .00000000  00000+0  00000-0 0  9997
2 84292 100.0000 348.0000 0000000   0.0000 348.0000 15.18623352    15
CTC2_L_00095030-02
1 84293U 25108GU  26037.47791667  .00000000  00000+0  00000-0 0  9996
2 84293 100.0000 348.0000 0000000   0.0000  78.0000 15.18623352    16
CTC2_L_00095030-03
1 84294U 22403BB  26037.47791667  .00000000  00000+0  00000-0 0  9992
2 84294 100.0000 348.0000 0000000   0.0000 168.0000 15.18623352    17
CTC2_L_00095030-04
1 84295U 25980NM  26037.47791667  .00000000  00000+0  00000-0 0  9996
2 84295 100.0000 348.0000 0000000   0.0000 258.0000 15.18623352    18
